YOTSUBA-KULOVER         
1 65941U 98067XN  26068.19983402  .00228614  00000+0  11586-2 0  9998
2 65941  51.6212  59.8333 0005615  64.0479 296.1100 15.80299933 23421
E-KAGAKU-1              
1 65943U 98067XQ  26068.20418216  .00220564  00000+0  11367-2 0  9991
2 65943  51.6231  59.8799 0005994  71.0576 289.1075 15.79952839 23428
HRC MONOBLOCK CAMERA    
1 66052U 98067XR  26068.38050642  .00054070  00000+0  60521-3 0  9991
2 66052  51.6279  67.0928 0003667  90.6396 269.5018 15.62163367 22340
HTV-X1                  
1 66174U 25241A   26068.44878279  .00007802  00000+0  15192-3 0  9996
2 66174  51.6321  73.5472 0008026 173.5451 186.5642 15.48542052554477
SZ-21 MODULE            
1 66515U 25246C   26067.73638915  .00047754  00000+0  41113-3 0  9994
2 66515  41.4736 209.2286 0001365 296.9264  63.1439 15.68463397 17929
SHENZHOU-22             
1 66645U 25272A   26068.58759434  .00025302  00000+0  29943-3 0  9993
2 66645  41.4666 208.7841 0006982 272.7102  87.2938 15.60651211267529
SOYUZ-MS 28             
1 66664U 25275A   26068.44878279  .00007802  00000+0  15192-3 0  9997
2 66664  51.6321  73.5472 0008026 173.5451 186.5642 15.48542052554527
DUPLEX                  
1 66906U 98067XS  26068.26507085  .00032613  00000+0  46194-3 0  9993
2 66906  51.6292  71.5742 0002352 105.0459 255.0793 15.56173830 15068
ISS OBJECT XT           
1 66907U 98067XT  26068.00964866  .00187404  00000+0  15577-2 0  9999
2 66907  51.6252  69.1047 0004704  72.0674 288.0836 15.69021342 15070
ISS OBJECT XU           
1 66908U 98067XU  26068.19895314  .00161175  00000+0  13351-2 0  9996
2 66908  51.6248  68.1144 0004893  76.6698 283.4844 15.69191892 15108
SILVERSAT               
1 66909U 98067XV  26068.26463686  .00211631  00000+0  15445-2 0  9997
2 66909  51.6252  67.0520 0005527  73.9744 286.1863 15.72057374 15120
ISS OBJECT XW           
1 66910U 98067XW  26068.25909918  .00146604  00000+0  12540-2 0  9991
2 66910  51.6252  67.7624 0005143  83.0730 277.0851 15.68462358 15117
